NORAD_CAT_ID,OBJECT_NAME,OBJECT_TYPE,EPOCH,MEAN_MOTION,ECCENTRICITY,INCLINATION,RA_OF_ASC_NODE,ARG_OF_PERICENTER,MEAN_ANOMALY,BSTAR,MEAN_MOTION_DOT,MEAN_MOTION_DDOT,TLE_LINE0,TLE_LINE1,TLE_LINE2,SEMIMAJOR_AXIS,PERIOD,APOGEE,PERIGEE,DECAYED
52361.0,STARLINK-3728,PAYLOAD,2022-08-04 22:00:00,15.08869183,0.0002029999999999,53.218,332.3752,42.5889,273.5102,-0.0042005,-0.00066576,0.0,0 STARLINK-3728,1 52361U 22045AG  22216.91667824 -.00066576  00000-0 -42005-2 0  9991,2 52361  53.2180 332.3752 0002030  42.5889 273.5102 15.08869183  1307,6917.791,95.436,541.061,538.252,0.0
52361.0,STARLINK-3728,PAYLOAD,2022-08-05 14:00:01,15.08839402,0.0002073999999999,53.2183,329.3825,44.1613,295.186,-0.00064751,-0.00010579,0.0,0 STARLINK-3728,1 52361U 22045AG  22217.58335648 -.00010579  00000-0 -64751-3 0  9996,2 52361  53.2183 329.3825 0002074  44.1613 295.1860 15.08839402 17701,6917.882,95.438,541.182,538.312,0.0
52361.0,STARLINK-3728,PAYLOAD,2022-08-05 22:00:00,15.08856043,0.0002052,53.2183,327.8859,42.4039,308.4642,-0.0016546,-0.00026537,0.0,0 STARLINK-3728,1 52361U 22045AG  22217.91667824 -.00026537  00000-0 -16546-2 0  9996,2 52361  53.2183 327.8859 0002052  42.4039 308.4642 15.08856043  1305,6917.831,95.437,541.116,538.2769999999998,0.0
52361.0,STARLINK-3728,PAYLOAD,2022-08-06 13:56:18,15.08843413,0.0001992,53.2194,324.9041,48.0053,312.1108,1.3612e-05,-7.2e-07,0.0,0 STARLINK-3728,1 52361U 22045AG  22218.58077269 -.00000072  00000-0  13612-4 0  9996,2 52361  53.2194 324.9041 0001992  48.0053 312.1108 15.08843413 17851,6917.87,95.437,541.113,538.357,0.0
52361.0,STARLINK-3728,PAYLOAD,2022-08-06 22:00:00,15.08844155,0.0001982,53.2186,323.3965,40.7197,344.9426,-0.0018332,-0.00029349,0.0,0 STARLINK-3728,1 52361U 22045AG  22218.91667824 -.00029349  00000-0 -18332-2 0  9996,2 52361  53.2186 323.3965 0001982  40.7197 344.9426 15.08844155 17903,6917.868,95.437,541.104,538.362,0.0
52361.0,STARLINK-3728,PAYLOAD,2022-08-07 12:11:43,15.08831544,0.0001947,53.2195,320.7422,46.0503,314.0649,-9.1299e-07,-3.03e-06,0.0,0 STARLINK-3728,1 52361U 22045AG  22219.50814168 -.00000303  00000-0 -91299-6 0  9993,2 52361  53.2195 320.7422 0001947  46.0503 314.0649 15.08831544 17995,6917.906,95.438,541.118,538.424,0.0
52361.0,STARLINK-3728,PAYLOAD,2022-08-07 22:00:00,15.08864009,0.0001964,53.2187,318.9074,41.6074,18.8255,-0.0016457,-0.00026402,0.0,0 STARLINK-3728,1 52361U 22045AG  22219.91667824 -.00026402  00000-0 -16457-2 0  9990,2 52361  53.2187 318.9074 0001964  41.6074  18.8255 15.08864009  1303,6917.807,95.436,541.031,538.313,0.0
52361.0,STARLINK-3728,PAYLOAD,2022-08-08 14:00:01,15.08857205,0.0001961,53.2187,315.9154,41.0007,42.7446,-0.00094677,-0.00015332,0.0,0 STARLINK-3728,1 52361U 22045AG  22220.58335648 -.00015332  00000-0 -94677-3 0  9992,2 52361  53.2187 315.9154 0001961  41.0007  42.7446 15.08857205 18155,6917.828,95.436,541.049,538.336,0.0
52361.0,STARLINK-3728,PAYLOAD,2022-08-08 22:00:00,15.08881114,0.0001931,53.2184,314.4183,41.4217,53.8744,-0.0039912,-0.00063322,0.0,0 STARLINK-3728,1 52361U 22045AG  22220.91667824 -.00063322  00000-0 -39912-2 0  9995,2 52361  53.2184 314.4183 0001931  41.4217  53.8744 15.08881114  1301,6917.755,95.435,540.956,538.284,0.0
52361.0,STARLINK-3728,PAYLOAD,2022-08-09 14:00:01,15.08822229,0.0002072,53.2184,311.4268,44.9883,73.5045,-0.001441,-0.00023138,0.0,0 STARLINK-3728,1 52361U 22045AG  22221.58334491 -.00023138  00000-0 -14410-2 0  9997,2 52361  53.2184 311.4268 0002072  44.9883  73.5045 15.08822229  1301,6917.935,95.439,541.2330000000002,538.366,0.0
52361.0,STARLINK-3728,PAYLOAD,2022-08-09 22:00:00,15.08817679,0.0001939,53.218,309.9296,44.0052,86.055,-0.001969,-0.0003147,0.0,0 STARLINK-3728,1 52361U 22045AG  22221.91667824 -.00031470  00000-0 -19690-2 0  9996,2 52361  53.2180 309.9296 0001939  44.0052  86.0550 15.08817679 18356,6917.949000000001,95.439,541.155,538.472,0.0
52361.0,STARLINK-3728,PAYLOAD,2022-08-10 14:00:01,15.08804696,0.000205,53.218,306.9383,43.5754,109.6028,0.0011225999999999,0.00017606,0.0,0 STARLINK-3728,1 52361U 22045AG  22222.58334491  .00017606  00000-0  11226-2 0  9991,2 52361  53.2180 306.9383 0002050  43.5754 109.6028 15.08804696  1302,6917.988,95.44,541.271,538.435,0.0
52361.0,STARLINK-3728,PAYLOAD,2022-08-10 17:07:18,15.08796585,0.0002055,53.2177,306.3546,41.4349,98.631,0.0029101,0.00046276,0.0,0 STARLINK-3728,1 52361U 22045AG  22222.71341435  .00046276  00000-0  29101-2 0  9998,2 52361  53.2177 306.3546 0002055  41.4349  98.6310 15.08796585 18479,6918.013000000001,95.44,541.3,538.456,0.0
52361.0,STARLINK-3728,PAYLOAD,2022-08-10 22:00:00,15.08833287,0.0001963,53.2177,305.441,44.2115,120.5235,-0.0015142,-0.00024302,0.0,0 STARLINK-3728,1 52361U 22045AG  22222.91667824 -.00024302  00000-0 -15142-2 0  9991,2 52361  53.2177 305.4410 0001963  44.2115 120.5235 15.08833287  1304,6917.901,95.438,541.124,538.408,0.0
52361.0,STARLINK-3728,PAYLOAD,2022-08-11 14:00:01,15.08820509,0.000214,53.2177,302.4498,43.5293,144.3485,0.0015647,0.00024689,0.0,0 STARLINK-3728,1 52361U 22045AG  22223.58334491  .00024689  00000-0  15647-2 0  9992,2 52361  53.2177 302.4498 0002140  43.5293 144.3485 15.08820509  1308,6917.94,95.439,541.285,538.325,0.0
52361.0,STARLINK-3728,PAYLOAD,2022-08-11 22:00:00,15.08853723,0.0002032999999999,53.2175,300.9522,44.3845,155.0769,-0.0013687999999999,-0.00022015,0.0,0 STARLINK-3728,1 52361U 22045AG  22223.91667824 -.00022015  00000-0 -13688-2 0  9994,2 52361  53.2175 300.9522 0002033  44.3845 155.0769 15.08853723 18654,6917.8380000000025,95.437,541.11,538.297,0.0
52361.0,STARLINK-3728,PAYLOAD,2022-08-12 14:00:01,15.08851747,0.0002218,53.2176,297.9609,42.90600000000001,179.78,0.0011167999999999,0.00017536,0.0,0 STARLINK-3728,1 52361U 22045AG  22224.58334491  .00017536  00000-0  11168-2 0  9990,2 52361  53.2176 297.9609 0002218  42.9060 179.7800 15.08851747  1301,6917.844,95.437,541.244,538.175,0.0
52361.0,STARLINK-3728,PAYLOAD,2022-08-12 22:00:01,15.08858676,0.0002032999999999,53.2175,296.463,42.6514,191.7149,-0.0018654,-0.00029869,0.0,0 STARLINK-3728,1 52361U 22045AG  22224.91668981 -.00029869  00000-0 -18654-2 0  9992,2 52361  53.2175 296.4630 0002033  42.6514 191.7149 15.08858676  1302,6917.823,95.436,541.095,538.2819999999998,0.0
52361.0,STARLINK-3728,PAYLOAD,2022-08-13 06:00:02,15.08865417,0.0001961,53.2176,294.9664,45.4032,200.5592,-0.0027592,-0.00043965,0.0,0 STARLINK-3728,1 52361U 22045AG  22225.25002315 -.00043965  00000-0 -27592-2 0  9997,2 52361  53.2176 294.9664 0001961  45.4032 200.5592 15.08865417 18858,6917.803000000001,95.436,541.024,538.311,0.0
52361.0,STARLINK-3728,PAYLOAD,2022-08-13 14:00:01,15.08804956,0.0002149,53.2175,293.4718,39.0201,218.4895,0.0023985,0.00038054,0.0,0 STARLINK-3728,1 52361U 22045AG  22225.58334491  .00038054  00000-0  23985-2 0  9999,2 52361  53.2175 293.4718 0002149  39.0201 218.4895 15.08804956  1304,6917.988,95.44,541.339,538.366,0.0
52361.0,STARLINK-3728,PAYLOAD,2022-08-13 22:00:00,15.08835372,0.0001994,53.2175,291.9739,40.6173,228.462,-0.00086071,-0.00013959,0.0,0 STARLINK-3728,1 52361U 22045AG  22225.91667824 -.00013959  00000-0 -86071-3 0  9990,2 52361  53.2175 291.9739 0001994  40.6173 228.4620 15.08835372  1306,6917.895,95.438,541.139,538.38,0.0
52361.0,STARLINK-3728,PAYLOAD,2022-08-14 14:00:01,15.08822391,0.000218,53.2174,288.9826,39.4586,252.8089,0.0025968,0.00041263,0.0,0 STARLINK-3728,1 52361U 22045AG  22226.58334491  .00041263  00000-0  25968-2 0  9999,2 52361  53.2174 288.9826 0002180  39.4586 252.8089 15.08822391 19058,6917.934,95.439,541.307,538.2909999999998,0.0
52361.0,STARLINK-3728,PAYLOAD,2022-08-14 22:00:00,15.08852414,0.0002015,53.2174,287.4846,42.16,261.703,-0.00056616,-9.291e-05,0.0,0 STARLINK-3728,1 52361U 22045AG  22226.91667824 -.00009291  00000-0 -56616-3 0  9997,2 52361  53.2174 287.4846 0002015  42.1600 261.7030 15.08852414  1302,6917.842,95.437,541.101,538.313,0.0
52361.0,STARLINK-3728,PAYLOAD,2022-08-15 06:00:00,15.08863216,0.0002035,53.2174,285.9882,45.8871,269.5755,-0.0029449,-0.00046882,0.0,0 STARLINK-3728,1 52361U 22045AG  22227.25001157 -.00046882  00000-0 -29449-2 0  9996,2 52361  53.2174 285.9882 0002035  45.8871 269.5755 15.08863216 19151,6917.809,95.436,541.082,538.2669999999998,0.0
52361.0,STARLINK-3728,PAYLOAD,2022-08-15 14:00:01,15.08808796,0.0002253,53.2171,284.4932,42.3874,284.6809,0.0025959,0.00041233,0.0,0 STARLINK-3728,1 52361U 22045AG  22227.58334491  .00041233  00000-0  25959-2 0  9997,2 52361  53.2171 284.4932 0002253  42.3874 284.6809 15.08808796  1303,6917.976,95.44,541.399,538.2819999999998,0.0
52361.0,STARLINK-3728,PAYLOAD,2022-08-15 22:00:00,15.08829016,0.0002073999999999,53.217,282.9952,45.621,293.0271,0.0001764999999999,2.521e-05,0.0,0 STARLINK-3728,1 52361U 22045AG  22227.91667824  .00002521  00000-0  17650-3 0  9990,2 52361  53.2170 282.9952 0002074  45.6210 293.0271 15.08829016  1303,6917.9140000000025,95.438,541.214,538.344,0.0
52361.0,STARLINK-3728,PAYLOAD,2022-08-16 00:00:00,15.08811008,0.0002015,53.2169,282.6208,46.4847,25.0654,0.0027076,0.00043033,0.0,0 STARLINK-3728,1 52361U 22045AG  22228.00001157  .00043033  00000-0  27076-2 0  9997,2 52361  53.2169 282.6208 0002015  46.4847  25.0654 15.08811008 19277,6917.969,95.439,541.2280000000002,538.44,0.0
52361.0,STARLINK-3728,PAYLOAD,2022-08-16 14:00:01,15.08820724,0.0002243,53.2167,280.004,43.4005,318.435,0.0026814,0.00042623,0.0,0 STARLINK-3728,1 52361U 22045AG  22228.58334491  .00042623  00000-0  26814-2 0  9993,2 52361  53.2167 280.0040 0002243  43.4005 318.4350 15.08820724 19364,6917.939,95.439,541.356,538.253,0.0
52361.0,STARLINK-3728,PAYLOAD,2022-08-16 22:00:00,15.08837082,0.0002065,53.2166,278.5059,47.0065,326.426,0.00085968,0.00013419,0.0,0 STARLINK-3728,1 52361U 22045AG  22228.91667824  .00013419  00000-0  85968-3 0  9996,2 52361  53.2166 278.5059 0002065  47.0065 326.4260 15.08837082  1302,6917.889,95.438,541.183,538.326,0.0
